[Satellite]
VERSION=1.1
NAME=MOLNIYA 3-20
NICKNAME=MOLNIYA 3-20
TLE1=1 13875U 83015A   20156.95070166  .00000978  00000-0  00000+0 0  9992
TLE2=2 13875  63.5448 102.0197 7148864 255.5502  21.7696  2.00773131208856
STATUS=0
